{"type":"FeatureCollection","name":"Kyiv city districts","features":[{"type":"Feature","geometry":{"type":"Polygon","coordinates":[[[30.4323,50.372],[30.439,50.367],[30.437,50.361],[30.442,50.357],[30.452,50.356],[30.469,50.361],[30.4725,50.351],[30.476,50.341],[30.478,50.341],[30.479,50.337],[30.498,50.333],[30.535,50.317],[30.534,50.295],[30.576,50.261],[30.588,50.244],[30.593,50.214],[30.642,50.227],[30.636,50.236],[30.644,50.24],[30.635,50.244],[30.632,50.251],[30.624,50.256],[30.625,50.262],[30.615,50.266],[30.61,50.274],[30.61,50.2784],[30.6096,50.2787],[30.61,50.2799],[30.61,50.282],[30.625,50.283],[30.63,50.298],[30.643,50.292],[30.644,50.289],[30.6493,50.2903],[30.648,50.291],[30.641,50.304],[30.628,50.315],[30.612,50.337],[30.6122,50.3372],[30.6124,50.3376],[30.6121,50.3377],[30.6075,50.341],[30.599,50.3505],[30.593,50.353],[30.5845,50.37],[30.5965,50.409],[30.591,50.4168],[30.5905,50.4175],[30.5904,50.4175],[30.5899,50.4174],[30.5897,50.4173],[30.573,50.4135],[30.5595,50.403],[30.5265,50.407],[30.5275,50.411],[30.5165,50.428],[30.5165,50.4392],[30.5165,50.4399],[30.5165,50.44],[30.501,50.4425],[30.4938,50.4391],[30.4935,50.439],[30.4935,50.4383],[30.4935,50.438],[30.4995,50.434],[30.509,50.4285],[30.512,50.4215],[30.508,50.423],[30.503,50.4225],[30.4885,50.4015],[30.471,50.3925],[30.4605,50.392],[30.441,50.3835],[30.4411,50.3833],[30.4429,50.3819],[30.444,50.381],[30.4323,50.372]]]},"properties":{"id":"UA80000000000126643","name":"Голосіївський район","oblast":"UA80"}},{"type":"Feature","geometry":{"type":"Polygon","coordinates":[[[30.4411,50.3833],[30.441,50.3835],[30.4605,50.392],[30.471,50.3925],[30.4885,50.4015],[30.503,50.4225],[30.508,50.423],[30.512,50.4215],[30.509,50.4285],[30.4995,50.434],[30.4935,50.438],[30.4935,50.4383],[30.4935,50.439],[30.4938,50.4391],[30.492,50.4405],[30.485,50.4455],[30.467,50.4515],[30.4155,50.46],[30.4155,50.4598],[30.4165,50.4595],[30.4163,50.459],[30.4145,50.4545],[30.398,50.441],[30.428,50.4085],[30.426,50.4025],[30.4215,50.399],[30.4195,50.3982],[30.423,50.397],[30.423,50.394],[30.429,50.393],[30.4411,50.3833]]]},"properties":{"id":"UA80000000000980793","name":"Солом'янський район","oblast":"UA80"}},{"type":"Feature","geometry":{"type":"Polygon","coordinates":[[[30.4195,50.3982],[30.4215,50.399],[30.426,50.4025],[30.428,50.4085],[30.398,50.441],[30.4145,50.4545],[30.4163,50.459],[30.4165,50.4595],[30.4155,50.4598],[30.4145,50.46],[30.3965,50.4585],[30.3965,50.4859],[30.3965,50.487],[30.3655,50.499],[30.3623,50.5151],[30.3615,50.5153],[30.352,50.5185],[30.347,50.522],[30.303,50.547],[30.305,50.545],[30.304,50.533],[30.29,50.525],[30.282,50.521],[30.267,50.517],[30.262,50.511],[30.271,50.503],[30.242,50.455],[30.247,50.439],[30.269,50.427],[30.28,50.448],[30.322,50.443],[30.359,50.446],[30.372,50.42],[30.393,50.407],[30.4176,50.3988],[30.4195,50.3982]]]},"properties":{"id":"UA80000000000875983","name":"Святошинський район","oblast":"UA80"}},{"type":"Feature","geometry":{"type":"Polygon","coordinates":[[[30.8249,50.4041],[30.822,50.407],[30.806,50.409],[30.795,50.418],[30.8,50.427],[30.775,50.438],[30.742,50.458],[30.75,50.463],[30.748,50.468],[30.7424,50.4687],[30.742,50.4687],[30.7418,50.4686],[30.7415,50.4688],[30.7414,50.4688],[30.71,50.449],[30.6955,50.4435],[30.6505,50.4335],[30.5903,50.4176],[30.59,50.4175],[30.5899,50.4174],[30.5904,50.4175],[30.5905,50.4175],[30.591,50.4168],[30.5965,50.409],[30.5845,50.37],[30.593,50.353],[30.599,50.3505],[30.6075,50.341],[30.6121,50.3377],[30.6124,50.3376],[30.615,50.341],[30.61,50.347],[30.638,50.355],[30.635,50.362],[30.652,50.364],[30.67,50.371],[30.711,50.353],[30.742,50.373],[30.816,50.394],[30.82,50.402],[30.8249,50.4041]]]},"properties":{"id":"UA80000000000210193","name":"Дарницький район","oblast":"UA80"}},{"type":"Feature","geometry":{"type":"Polygon","coordinates":[[[30.739,50.4901],[30.6575,50.468],[30.6335,50.456],[30.6325,50.4555],[30.625,50.467],[30.6125,50.4715],[30.607,50.478],[30.6065,50.495],[30.5605,50.495],[30.545,50.493],[30.5375,50.4907],[30.542,50.4865],[30.543,50.4835],[30.5428,50.4835],[30.5417,50.4835],[30.542,50.4825],[30.5285,50.4675],[30.53,50.4595],[30.5345,50.456],[30.5375,50.4549],[30.5384,50.4545],[30.5515,50.4495],[30.561,50.4445],[30.586,50.425],[30.5875,50.423],[30.5897,50.4173],[30.5899,50.4174],[30.59,50.4175],[30.5903,50.4176],[30.6505,50.4335],[30.6955,50.4435],[30.71,50.449],[30.7414,50.4688],[30.74,50.469],[30.748,50.474],[30.745,50.477],[30.748,50.487],[30.739,50.49],[30.739,50.4901]]]},"properties":{"id":"UA80000000000479391","name":"Дніпровський район","oblast":"UA80"}},{"type":"Feature","geometry":{"type":"Polygon","coordinates":[[[30.5408,50.5234],[30.5375,50.525],[30.5265,50.51],[30.5255,50.5005],[30.531,50.4965],[30.5365,50.491],[30.537,50.4905],[30.5375,50.4907],[30.545,50.493],[30.5605,50.495],[30.6065,50.495],[30.607,50.478],[30.6125,50.4715],[30.625,50.467],[30.6325,50.4555],[30.6335,50.456],[30.6575,50.468],[30.739,50.4901],[30.7393,50.4913],[30.74,50.494],[30.737,50.5],[30.74,50.5],[30.756,50.508],[30.76,50.512],[30.752,50.518],[30.821,50.538],[30.814,50.563],[30.788,50.576],[30.766,50.583],[30.722,50.585],[30.655,50.533],[30.592,50.535],[30.557,50.539],[30.569,50.522],[30.568,50.516],[30.56,50.515],[30.555,50.521],[30.54,50.522],[30.5404,50.5228],[30.5408,50.5234]]]},"properties":{"id":"UA80000000000336424","name":"Деснянський район","oblast":"UA80"}},{"type":"Feature","geometry":{"type":"Polygon","coordinates":[[[30.303,50.547],[30.347,50.522],[30.352,50.5185],[30.3615,50.5153],[30.3623,50.5151],[30.3625,50.515],[30.4465,50.526],[30.451,50.5005],[30.4655,50.4895],[30.501,50.483],[30.5265,50.482],[30.529,50.483],[30.5417,50.4835],[30.5428,50.4835],[30.543,50.4835],[30.542,50.4865],[30.5375,50.4907],[30.537,50.4905],[30.5365,50.491],[30.531,50.4965],[30.5255,50.5005],[30.5265,50.51],[30.5375,50.525],[30.5408,50.5234],[30.544,50.529],[30.543,50.532],[30.534,50.537],[30.5326,50.5391],[30.526,50.54],[30.524,50.542],[30.501,50.551],[30.493,50.566],[30.464,50.571],[30.457,50.584],[30.372,50.585],[30.372,50.573],[30.339,50.573],[30.3143,50.5699],[30.326,50.566],[30.332,50.56],[30.334,50.551],[30.327,50.545],[30.312,50.554],[30.302,50.552],[30.304,50.549],[30.3035,50.548],[30.303,50.547]]]},"properties":{"id":"UA80000000000551439","name":"Оболонський район","oblast":"UA80"}},{"type":"Feature","geometry":{"type":"Polygon","coordinates":[[[30.3965,50.4859],[30.4125,50.477],[30.43,50.476],[30.4355,50.4855],[30.476,50.479],[30.5145,50.4585],[30.5275,50.4565],[30.5272,50.455],[30.5271,50.4545],[30.527,50.454],[30.5272,50.454],[30.5285,50.454],[30.53,50.454],[30.535,50.452],[30.5384,50.4545],[30.5375,50.4549],[30.5345,50.456],[30.53,50.4595],[30.5285,50.4675],[30.542,50.4825],[30.5417,50.4835],[30.529,50.483],[30.5265,50.482],[30.501,50.483],[30.4655,50.4895],[30.451,50.5005],[30.4465,50.526],[30.3625,50.515],[30.3623,50.5151],[30.3655,50.499],[30.3965,50.487],[30.3965,50.4859]]]},"properties":{"id":"UA80000000000719633","name":"Подільський район","oblast":"UA80"}},{"type":"Feature","geometry":{"type":"Polygon","coordinates":[[[30.5897,50.4173],[30.5875,50.423],[30.586,50.425],[30.561,50.4445],[30.5515,50.4495],[30.5384,50.4545],[30.535,50.452],[30.53,50.454],[30.5285,50.454],[30.5285,50.4515],[30.5261,50.4487],[30.5215,50.4445],[30.523,50.4415],[30.5175,50.439],[30.5165,50.4392],[30.5165,50.428],[30.5275,50.411],[30.5265,50.407],[30.5595,50.403],[30.573,50.4135],[30.5897,50.4173]]]},"properties":{"id":"UA80000000000624772","name":"Печерський район","oblast":"UA80"}},{"type":"Feature","geometry":{"type":"Polygon","coordinates":[[[30.5165,50.4392],[30.5175,50.439],[30.523,50.4415],[30.5215,50.4445],[30.5261,50.4487],[30.5285,50.4515],[30.5285,50.454],[30.5272,50.454],[30.527,50.454],[30.5271,50.4545],[30.5272,50.455],[30.5275,50.4565],[30.5145,50.4585],[30.476,50.479],[30.4355,50.4855],[30.43,50.476],[30.4125,50.477],[30.3965,50.4859],[30.3965,50.4585],[30.4145,50.46],[30.4155,50.4598],[30.4155,50.46],[30.467,50.4515],[30.485,50.4455],[30.492,50.4405],[30.4938,50.4391],[30.501,50.4425],[30.5165,50.44],[30.5165,50.4399],[30.5165,50.4392]]]},"properties":{"id":"UA80000000001078669","name":"Шевченківський район","oblast":"UA80"}}]}